NORAD_CAT_ID,OBJECT_NAME,OBJECT_TYPE,EPOCH,MEAN_MOTION,ECCENTRICITY,INCLINATION,RA_OF_ASC_NODE,ARG_OF_PERICENTER,MEAN_ANOMALY,BSTAR,MEAN_MOTION_DOT,MEAN_MOTION_DDOT,TLE_LINE0,TLE_LINE1,TLE_LINE2,SEMIMAJOR_AXIS,PERIOD,APOGEE,PERIGEE,DECAYED
55654.0,STARLINK-5070,PAYLOAD,2024-07-26 05:42:54,14.98329941,0.0003416,69.9986,235.8764,267.7145,92.3623,4.8964e-05,4.91e-06,0.0,0 STARLINK-5070,1 55654U 23021AC  24208.23813609  .00000491  00000-0  48964-4 0  9990,2 55654  69.9986 235.8764 0003416 267.7145  92.3623 14.98329941 79893,6950.193,96.107,574.432,569.684,0.0
55654.0,STARLINK-5070,PAYLOAD,2024-07-26 08:55:10,14.98331002,0.0003401,69.9986,235.5396,267.7424,92.3345,6.0623e-05,6.3e-06,0.0,0 STARLINK-5070,1 55654U 23021AC  24208.37165505  .00000630  00000-0  60623-4 0  9991,2 55654  69.9986 235.5396 0003401 267.7424  92.3345 14.98331002 80215,6950.19,96.107,574.419,569.691,0.0
55654.0,STARLINK-5070,PAYLOAD,2024-07-26 18:31:59,14.9833242,0.0003384,69.9986,234.5296,269.8018,90.2754,4.2961e-05,4.2e-06,0.0,0 STARLINK-5070,1 55654U 23021AC  24208.77221418  .00000420  00000-0  42961-4 0  9993,2 55654  69.9986 234.5296 0003384 269.8018  90.2754 14.98332420 80277,6950.185,96.107,574.402,569.698,0.0
55654.0,STARLINK-5070,PAYLOAD,2024-07-27 05:44:55,14.98333919,0.0003346,69.9987,233.3516,269.1358,90.9418,1.9442e-05,1.39e-06,0.0,0 STARLINK-5070,1 55654U 23021AC  24209.23953285  .00000139  00000-0  19442-4 0  9994,2 55654  69.9987 233.3516 0003346 269.1358  90.9418 14.98333919 80344,6950.181,96.107,574.371,569.72,0.0
55654.0,STARLINK-5070,PAYLOAD,2024-07-27 08:57:11,14.98333879,0.0003346,69.9987,233.0149,269.1471,90.9305,1.8794e-05,1.31e-06,0.0,0 STARLINK-5070,1 55654U 23021AC  24209.37305255  .00000131  00000-0  18794-4 0  9998,2 55654  69.9987 233.0149 0003346 269.1471  90.9305 14.98333879 80068,6950.181,96.107,574.371,569.72,0.0
55654.0,STARLINK-5070,PAYLOAD,2024-07-27 12:09:27,14.98334083,0.0003342,69.9987,232.6783,269.1939,90.8837,2.0147e-05,1.47e-06,0.0,0 STARLINK-5070,1 55654U 23021AC  24209.50657198  .00000147  00000-0  20147-4 0  9991,2 55654  69.9987 232.6783 0003342 269.1939  90.8837 14.98334083 80384,6950.18,96.107,574.368,569.723,0.0
55654.0,STARLINK-5070,PAYLOAD,2024-07-28 10:35:18,14.9835213,0.0003208,69.9989,230.3223,265.2852,94.7941,0.00020574,2.364e-05,0.0,0 STARLINK-5070,1 55654U 23021AC  24210.44119057  .00002364  00000-0  20574-3 0  9999,2 55654  69.9989 230.3223 0003208 265.2852  94.7941 14.98352130 80227,6950.124,96.106,574.219,569.76,0.0
55654.0,STARLINK-5070,PAYLOAD,2024-07-29 04:12:48,14.98339268,0.0003005,70.0,228.4732,250.5388,109.5447,-2.3711e-06,-1.21e-06,0.0,0 STARLINK-5070,1 55654U 23021AC  24211.17555947 -.00000121  00000-0 -23711-5 0  9991,2 55654  70.0000 228.4732 0003005 250.5388 109.5447 14.98339268 80338,6950.164,96.106,574.118,569.941,0.0
55654.0,STARLINK-5070,PAYLOAD,2024-07-29 10:37:21,14.9833227,0.0003545,69.9981,227.7964,270.7741,89.3012,-4.3855e-05,-6.16e-06,0.0,0 STARLINK-5070,1 55654U 23021AC  24211.44260429 -.00000616  00000-0 -43855-4 0  9998,2 55654  69.9981 227.7964 0003545 270.7741  89.3012 14.98332270 80371,6950.186,96.107,574.515,569.587,0.0
55654.0,STARLINK-5070,PAYLOAD,2024-07-30 04:14:50,14.98331677,0.0003417,69.9982,225.945,268.4964,91.5803,-0.00023833,-2.936e-05,0.0,0 STARLINK-5070,1 55654U 23021AC  24212.17697117 -.00002936  00000-0 -23833-3 0  9997,2 55654  69.9982 225.9450 0003417 268.4964  91.5803 14.98331677 80486,6950.188,96.107,574.428,569.678,0.0
55654.0,STARLINK-5070,PAYLOAD,2024-07-30 09:03:14,14.98331585,0.0003364,69.9984,225.4401,268.1988,91.8786,-0.00022137,-2.734e-05,0.0,0 STARLINK-5070,1 55654U 23021AC  24212.37725057 -.00002734  00000-0 -22137-3 0  9996,2 55654  69.9984 225.4401 0003364 268.1988  91.8786 14.98331585 80811,6950.188,96.107,574.391,569.715,0.0
55654.0,STARLINK-5070,PAYLOAD,2024-07-30 18:40:03,14.98322608,0.0003425,69.998,224.4293,267.687,92.3897,-0.00022549,-2.782e-05,0.0,0 STARLINK-5070,1 55654U 23021AC  24212.77781695 -.00002782  00000-0 -22549-3 0  9990,2 55654  69.9980 224.4293 0003425 267.6870  92.3897 14.98322608 80575,6950.216,96.107,574.461,569.7,0.0
55654.0,STARLINK-5070,PAYLOAD,2024-07-31 10:41:24,14.98316435,0.0003218,69.9981,222.7462,269.2699,90.8091,9.4828e-07,-8.2e-07,0.0,0 STARLINK-5070,1 55654U 23021AC  24213.44542493 -.00000082  00000-0  94828-6 0  9998,2 55654  69.9981 222.7462 0003218 269.2699  90.8091 14.98316435 80673,6950.235,96.108,574.336,569.863,0.0
55654.0,STARLINK-5070,PAYLOAD,2024-08-01 04:18:54,14.98304177,0.0002538,69.9999,220.8946,256.2976,103.7901,8.983e-05,9.78e-06,0.0,0 STARLINK-5070,1 55654U 23021AC  24214.17980041  .00000978  00000-0  89830-4 0  9992,2 55654  69.9999 220.8946 0002538 256.2976 103.7901 14.98304177 80782,6950.273,96.109,573.902,570.374,0.0
55654.0,STARLINK-5070,PAYLOAD,2024-08-01 10:43:26,14.98322839,0.0003016,69.9985,220.2209,268.2475,91.8338,0.00015349,1.739e-05,0.0,0 STARLINK-5070,1 55654U 23021AC  24214.44682983  .00001739  00000-0  15349-3 0  9995,2 55654  69.9985 220.2209 0003016 268.2475  91.8338 14.98322839 80823,6950.215,96.107,574.176,569.984,0.0
55654.0,STARLINK-5070,PAYLOAD,2024-08-01 17:07:58,14.98323683,0.0002695,69.9996,219.548,268.2237,91.8614,0.00022431,2.584e-05,0.0,0 STARLINK-5070,1 55654U 23021AC  24214.71386996  .00002584  00000-0  22431-3 0  9999,2 55654  69.9996 219.5480 0002695 268.2237  91.8614 14.98323683 81168,6950.212,96.107,573.951,570.204,0.0
55654.0,STARLINK-5070,PAYLOAD,2024-08-02 10:45:26,14.98333146,0.0002898,69.9989,217.6958,271.0526,89.0301,0.00018266,2.087e-05,0.0,0 STARLINK-5070,1 55654U 23021AC  24215.44822793  .00002087  00000-0  18266-3 0  9999,2 55654  69.9989 217.6958 0002898 271.0526  89.0301 14.98333146 80972,6950.183,96.107,574.062,570.034,0.0
55654.0,STARLINK-5070,PAYLOAD,2024-08-02 17:09:58,14.98339019,0.0002948,69.9989,217.0231,269.1682,90.914,0.00018684,2.138e-05,0.0,0 STARLINK-5070,1 55654U 23021AC  24215.71526333  .00002138  00000-0  18684-3 0  9991,2 55654  69.9989 217.0231 0002948 269.1682  90.9140 14.98339019 81313,6950.165,96.106,574.079,569.981,0.0
55654.0,STARLINK-5070,PAYLOAD,2024-08-03 05:59:02,14.98347846,0.0003052,69.9985,215.6768,267.2241,92.8569,0.00014733,1.666e-05,0.0,0 STARLINK-5070,1 55654U 23021AC  24216.24933605  .00001666  00000-0  14733-3 0  9990,2 55654  69.9985 215.6768 0003052 267.2241  92.8569 14.98347846 81093,6950.138,96.106,574.124,569.882,0.0
55654.0,STARLINK-5070,PAYLOAD,2024-08-03 09:11:18,14.98349095,0.0003024,69.9986,215.3401,267.729,92.3523,0.00015867,1.802e-05,0.0,0 STARLINK-5070,1 55654U 23021AC  24216.38285352  .00001802  00000-0  15867-3 0  9995,2 55654  69.9986 215.3401 0003024 267.7290  92.3523 14.98349095 81412,6950.134,96.106,574.101,569.897,0.0
55654.0,STARLINK-5070,PAYLOAD,2024-08-03 17:11:59,14.98342846,0.0003015,69.9987,214.4984,268.7817,91.2996,4.4449e-05,4.38e-06,0.0,0 STARLINK-5070,1 55654U 23021AC  24216.71665684  .00000438  00000-0  44449-4 0  9995,2 55654  69.9987 214.4984 0003015 268.7817  91.2996 14.98342846 81166,6950.153,96.106,574.114,569.923,0.0
55654.0,STARLINK-5070,PAYLOAD,2024-08-04 06:01:03,14.98338248,0.0002928,69.9989,213.1523,268.6735,91.4089,-5.9323e-05,-8.01e-06,0.0,0 STARLINK-5070,1 55654U 23021AC  24217.25073858 -.00000801  00000-0 -59323-4 0  9994,2 55654  69.9989 213.1523 0002928 268.6735  91.4089 14.98338248 81248,6950.167,96.106,574.067,569.997,0.0
55654.0,STARLINK-5070,PAYLOAD,2024-08-04 09:13:19,14.983376,0.0002961,69.9989,212.8156,268.8138,91.2682,-6.8418e-05,-9.09e-06,0.0,0 STARLINK-5070,1 55654U 23021AC  24217.38425831 -.00000909  00000-0 -68418-4 0  9994,2 55654  69.9989 212.8156 0002961 268.8138  91.2682 14.98337600 81565,6950.169,96.107,574.092,569.976,0.0
55654.0,STARLINK-5070,PAYLOAD,2024-08-04 17:13:59,14.98339102,0.0003031,69.9987,211.9738,270.0058,90.0753,-6.5023e-05,-8.69e-06,0.0,0 STARLINK-5070,1 55654U 23021AC  24217.71805502 -.00000869  00000-0 -65023-4 0  9992,2 55654  69.9987 211.9738 0003031 270.0058  90.0753 14.98339102 81615,6950.165,96.106,574.136,569.923,0.0
55654.0,STARLINK-5070,PAYLOAD,2024-08-05 06:03:03,14.98343083,0.0003027,69.9987,210.6275,269.9819,90.0993,-7.9248e-05,-1.039e-05,0.0,0 STARLINK-5070,1 55654U 23021AC  24218.25212916 -.00001039  00000-0 -79248-4 0  9997,2 55654  69.9987 210.6275 0003027 269.9819  90.0993 14.98343083 81398,6950.152,96.106,574.121,569.914,0.0
55654.0,STARLINK-5070,PAYLOAD,2024-08-05 17:16:00,14.98332687,0.0003035,69.9988,209.449,270.6109,89.4702,-8.9703e-05,-1.163e-05,0.0,0 STARLINK-5070,1 55654U 23021AC  24218.71945298 -.00001163  00000-0 -89703-4 0  9999,2 55654  69.9988 209.4490 0003035 270.6109  89.4702 14.98332687 81460,6950.185,96.107,574.159,569.94,0.0
55654.0,STARLINK-5070,PAYLOAD,2024-08-06 06:05:05,14.9832653,0.0003073,69.9987,208.1026,270.6702,89.4105,-3.2741e-05,-4.84e-06,0.0,0 STARLINK-5070,1 55654U 23021AC  24219.25353546 -.00000484  00000-0 -32741-4 0  9993,2 55654  69.9987 208.1026 0003073 270.6702  89.4105 14.98326530 81840,6950.204,96.107,574.204,569.933,0.0
55654.0,STARLINK-5070,PAYLOAD,2024-08-07 02:54:49,14.98332615,0.0003044,69.9989,205.9143,270.9001,89.1809,2.9375e-05,2.58e-06,0.0,0 STARLINK-5070,1 55654U 23021AC  24220.12141025  .00000258  00000-0  29375-4 0  9994,2 55654  69.9989 205.9143 0003044 270.9001  89.1809 14.98332615 81670,6950.185,96.107,574.165,569.934,0.0
55654.0,STARLINK-5070,PAYLOAD,2024-08-07 07:43:13,14.98336109,0.0003058,69.9989,205.4093,271.0573,89.0235,2.8495e-05,2.47e-06,0.0,0 STARLINK-5070,1 55654U 23021AC  24220.32168764  .00000247  00000-0  28495-4 0  9995,2 55654  69.9989 205.4093 0003058 271.0573  89.0235 14.98336109 82002,6950.174,96.107,574.164,569.914,0.0
55654.0,STARLINK-5070,PAYLOAD,2024-08-08 09:21:22,14.98332588,0.000275,69.9997,202.7164,267.3022,92.7823,0.00012531,1.403e-05,0.0,0 STARLINK-5070,1 55654U 23021AC  24221.38984627  .00001403  00000-0  12531-3 0  9994,2 55654  69.9997 202.7164 0002750 267.3022  92.7823 14.98332588 82163,6950.185,96.107,573.961,570.139,0.0
